{
  "type": "FeatureCollection",
  "features": [
    {
      "type": "Feature",
      "properties": {
        "norad_id": 66822,
        "name": "STARLINK-35958",
        "group": "last-30-days",
        "lat": -51.80525256532714,
        "lon": 30.360923075169914,
        "alt_km": 398.28199496664183,
        "timestamp": "2025-12-18T10:51:24.515309+00:00",
        "meta_object_name": "STARLINK-35958",
        "meta_object_id": "2025-280B",
        "meta_epoch": "2025-12-17T22:00:01.999584",
        "meta_mean_motion": 15.60192105,
        "meta_eccentricity": 0.00036054,
        "meta_inclination": 69.9995,
        "meta_ra_of_asc_node": 184.2638,
        "meta_arg_of_pericenter": 279.1406,
        "meta_mean_anomaly": 191.9694,
        "meta_ephemeris_type": 0,
        "meta_classification_type": "U",
        "meta_norad_cat_id": 66822,
        "meta_element_set_no": 999,
        "meta_rev_at_epoch": 373,
        "meta_bstar": -0.027099174,
        "meta_mean_motion_dot": -0.01953234,
        "meta_mean_motion_ddot": 0,
        "tle_line1": "1 66822U 25280B   25351.91668981 -.01953234  00000+0 -27099-1 0  9991",
        "tle_line2": "2 66822  69.9995 184.2638 0003605 279.1406 191.9694 15.60192105  3730"
      },
      "geometry": {
        "type": "Point",
        "coordinates": [
          30.360923075169914,
          -51.80525256532714
        ]
      }
    },
    {
      "type": "Feature",
      "properties": {
        "norad_id": 66823,
        "name": "STARLINK-35957",
        "group": "last-30-days",
        "lat": -53.38678533913006,
        "lon": 32.13490485452691,
        "alt_km": 398.20455010684327,
        "timestamp": "2025-12-18T10:51:24.515319+00:00",
        "meta_object_name": "STARLINK-35957",
        "meta_object_id": "2025-280C",
        "meta_epoch": "2025-12-17T22:00:01.999584",
        "meta_mean_motion": 15.60190791,
        "meta_eccentricity": 0.00036682,
        "meta_inclination": 69.9993,
        "meta_ra_of_asc_node": 184.2607,
        "meta_arg_of_pericenter": 278.0641,
        "meta_mean_anomaly": 194.9648,
        "meta_ephemeris_type": 0,
        "meta_classification_type": "U",
        "meta_norad_cat_id": 66823,
        "meta_element_set_no": 999,
        "meta_rev_at_epoch": 373,
        "meta_bstar": -0.027091118,
        "meta_mean_motion_dot": -0.01952692,
        "meta_mean_motion_ddot": 0,
        "tle_line1": "1 66823U 25280C   25351.91668981 -.01952692  00000+0 -27091-1 0  9991",
        "tle_line2": "2 66823  69.9993 184.2607 0003668 278.0641 194.9648 15.60190791  3734"
      },
      "geometry": {
        "type": "Point",
        "coordinates": [
          32.13490485452691,
          -53.38678533913006
        ]
      }
    },
    {
      "type": "Feature",
      "properties": {
        "norad_id": 66824,
        "name": "STARLINK-35896",
        "group": "last-30-days",
        "lat": -54.94264874042886,
        "lon": 34.049282104661586,
        "alt_km": 398.1723580065409,
        "timestamp": "2025-12-18T10:51:24.515329+00:00",
        "meta_object_name": "STARLINK-35896",
        "meta_object_id": "2025-280D",
        "meta_epoch": "2025-12-17T22:00:01.999584",
        "meta_mean_motion": 15.6018805,
        "meta_eccentricity": 0.00035964,
        "meta_inclination": 69.999,
        "meta_ra_of_asc_node": 184.2584,
        "meta_arg_of_pericenter": 276.4244,
        "meta_mean_anomaly": 198.5213,
        "meta_ephemeris_type": 0,
        "meta_classification_type": "U",
        "meta_norad_cat_id": 66824,
        "meta_element_set_no": 999,
        "meta_rev_at_epoch": 373,
        "meta_bstar": -0.026996521,
        "meta_mean_motion_dot": -0.01946436,
        "meta_mean_motion_ddot": 0,
        "tle_line1": "1 66824U 25280D   25351.91668981 -.01946436  00000+0 -26997-1 0  9995",
        "tle_line2": "2 66824  69.9990 184.2584 0003596 276.4244 198.5213 15.60188050  3730"
      },
      "geometry": {
        "type": "Point",
        "coordinates": [
          34.049282104661586,
          -54.94264874042886
        ]
      }
    },
    {
      "type": "Feature",
      "properties": {
        "norad_id": 66825,
        "name": "STARLINK-35476",
        "group": "last-30-days",
        "lat": -56.459839879024585,
        "lon": 36.107205867147854,
        "alt_km": 398.1796375892036,
        "timestamp": "2025-12-18T10:51:24.515339+00:00",
        "meta_object_name": "STARLINK-35476",
        "meta_object_id": "2025-280E",
        "meta_epoch": "2025-12-17T22:00:01.999584",
        "meta_mean_motion": 15.60188091,
        "meta_eccentricity": 0.00037105,
        "meta_inclination": 69.9989,
        "meta_ra_of_asc_node": 184.2561,
        "meta_arg_of_pericenter": 279.592,
        "meta_mean_anomaly": 197.27,
        "meta_ephemeris_type": 0,
        "meta_classification_type": "U",
        "meta_norad_cat_id": 66825,
        "meta_element_set_no": 999,
        "meta_rev_at_epoch": 358,
        "meta_bstar": -0.027005725,
        "meta_mean_motion_dot": -0.01947125,
        "meta_mean_motion_ddot": 0,
        "tle_line1": "1 66825U 25280E   25351.91668981 -.01947125  00000+0 -27006-1 0  9994",
        "tle_line2": "2 66825  69.9989 184.2561 0003710 279.5920 197.2700 15.60188091  3582"
      },
      "geometry": {
        "type": "Point",
        "coordinates": [
          36.107205867147854,
          -56.459839879024585
        ]
      }
    },
    {
      "type": "Feature",
      "properties": {
        "norad_id": 66826,
        "name": "STARLINK-35898",
        "group": "last-30-days",
        "lat": -57.94540674739592,
        "lon": 38.34252884440185,
        "alt_km": 398.1754656136409,
        "timestamp": "2025-12-18T10:51:24.515352+00:00",
        "meta_object_name": "STARLINK-35898",
        "meta_object_id": "2025-280F",
        "meta_epoch": "2025-12-17T22:00:01.999584",
        "meta_mean_motion": 15.60183525,
        "meta_eccentricity": 0.00036541,
        "meta_inclination": 69.9989,
        "meta_ra_of_asc_node": 184.2537,
        "meta_arg_of_pericenter": 279.532,
        "meta_mean_anomaly": 199.2483,
        "meta_ephemeris_type": 0,
        "meta_classification_type": "U",
        "meta_norad_cat_id": 66826,
        "meta_element_set_no": 999,
        "meta_rev_at_epoch": 373,
        "meta_bstar": -0.026885704,
        "meta_mean_motion_dot": -0.0193914,
        "meta_mean_motion_ddot": 0,
        "tle_line1": "1 66826U 25280F   25351.91668981 -.01939140  00000+0 -26886-1 0  9998",
        "tle_line2": "2 66826  69.9989 184.2537 0003654 279.5320 199.2483 15.60183525  3731"
      },
      "geometry": {
        "type": "Point",
        "coordinates": [
          38.34252884440185,
          -57.94540674739592
        ]
      }
    },
    {
      "type": "Feature",
      "properties": {
        "norad_id": 66827,
        "name": "STARLINK-35959",
        "group": "last-30-days",
        "lat": -59.382157546644514,
        "lon": 40.75762287777383,
        "alt_km": 398.1577945724166,
        "timestamp": "2025-12-18T10:51:24.515364+00:00",
        "meta_object_name": "STARLINK-35959",
        "meta_object_id": "2025-280G",
        "meta_epoch": "2025-12-17T22:00:01.999584",
        "meta_mean_motion": 15.60191793,
        "meta_eccentricity": 0.00036609,
        "meta_inclination": 69.9989,
        "meta_ra_of_asc_node": 184.2516,
        "meta_arg_of_pericenter": 278.5273,
        "meta_mean_anomaly": 202.1665,
        "meta_ephemeris_type": 0,
        "meta_classification_type": "U",
        "meta_norad_cat_id": 66827,
        "meta_element_set_no": 999,
        "meta_rev_at_epoch": 373,
        "meta_bstar": -0.027109109,
        "meta_mean_motion_dot": -0.01953895,
        "meta_mean_motion_ddot": 0,
        "tle_line1": "1 66827U 25280G   25351.91668981 -.01953895  00000+0 -27109-1 0  9991",
        "tle_line2": "2 66827  69.9989 184.2516 0003660 278.5273 202.1665 15.60191793  3734"
      },
      "geometry": {
        "type": "Point",
        "coordinates": [
          40.75762287777383,
          -59.382157546644514
        ]
      }
    },
    {
      "type": "Feature",
      "properties": {
        "norad_id": 66828,
        "name": "STARLINK-35982",
        "group": "last-30-days",
        "lat": -62.11105245162317,
        "lon": 46.25974774557239,
        "alt_km": 398.17024443754235,
        "timestamp": "2025-12-18T10:51:24.515375+00:00",
        "meta_object_name": "STARLINK-35982",
        "meta_object_id": "2025-280H",
        "meta_epoch": "2025-12-17T22:00:01.999584",
        "meta_mean_motion": 15.6018903,
        "meta_eccentricity": 0.00035586,
        "meta_inclination": 69.999,
        "meta_ra_of_asc_node": 184.2471,
        "meta_arg_of_pericenter": 278.3295,
        "meta_mean_anomaly": 206.1989,
        "meta_ephemeris_type": 0,
        "meta_classification_type": "U",
        "meta_norad_cat_id": 66828,
        "meta_element_set_no": 999,
        "meta_rev_at_epoch": 373,
        "meta_bstar": -0.027038659,
        "meta_mean_motion_dot": -0.01949145,
        "meta_mean_motion_ddot": 0,
        "tle_line1": "1 66828U 25280H   25351.91668981 -.01949145  00000+0 -27039-1 0  9997",
        "tle_line2": "2 66828  69.9990 184.2471 0003558 278.3295 206.1989 15.60189030  3739"
      },
      "geometry": {
        "type": "Point",
        "coordinates": [
          46.25974774557239,
          -62.11105245162317
        ]
      }
    }
  ]
}